[{"OBJECT_NAME":"SITRO-AIS 8 (ANOKHIN)","OBJECT_ID":"2023-091AD","EPOCH":"2026-03-09T23:44:40.058592","MEAN_MOTION":15.29359179,"ECCENTRICITY":0.0012509,"INCLINATION":97.5169,"RA_OF_ASC_NODE":133.2823,"ARG_OF_PERICENTER":92.0171,"MEAN_ANOMALY":268.2501,"EPHEMERIS_TYPE":0,"CLASSIFICATION_TYPE":"U","NORAD_CAT_ID":57193,"ELEMENT_SET_NO":999,"REV_AT_EPOCH":14927,"BSTAR":0.00064982524,"MEAN_MOTION_DOT":0.00018494,"MEAN_MOTION_DDOT":0},{"OBJECT_NAME":"STARLINK-35730","OBJECT_ID":"2025-247J","EPOCH":"2026-03-09T14:29:56.596992","MEAN_MOTION":15.30185915,"ECCENTRICITY":0.0001036,"INCLINATION":53.1598,"RA_OF_ASC_NODE":191.6227,"ARG_OF_PERICENTER":61.6153,"MEAN_ANOMALY":298.4952,"EPHEMERIS_TYPE":0,"CLASSIFICATION_TYPE":"U","NORAD_CAT_ID":66273,"ELEMENT_SET_NO":999,"REV_AT_EPOCH":2107,"BSTAR":0.00079649,"MEAN_MOTION_DOT":0.00023294,"MEAN_MOTION_DDOT":0}]
